{
    "links": {
        "self": "http://www.neowsapp.com/rest/v1/neo/3177212?api_key=iIulBulltgU6a56xZRHN4H3l9WmuAYTsLGpBGhQ2"
    },
    "id": "3177212",
    "neo_reference_id": "3177212",
    "name": "(2004 FE4)",
    "designation": "2004 FE4",
    "nasa_jpl_url": "http://ssd.jpl.nasa.gov/sbdb.cgi?sstr=3177212",
    "absolute_magnitude_h": 23.3,
    "estimated_diameter": {
        "kilometers": {
            "estimated_diameter_min": 0.058150704,
            "estimated_diameter_max": 0.130028927
        },
        "meters": {
            "estimated_diameter_min": 58.1507039646,
            "estimated_diameter_max": 130.0289270043
        },
        "miles": {
            "estimated_diameter_min": 0.0361331611,
            "estimated_diameter_max": 0.0807962044
        },
        "feet": {
            "estimated_diameter_min": 190.7831555951,
            "estimated_diameter_max": 426.6041048727
        }
    },
    "is_potentially_hazardous_asteroid": false,
    "close_approach_data": [
        {
            "close_approach_date": "2004-03-23",
            "close_approach_date_full": "2004-Mar-23 04:10",
            "epoch_date_close_approach": 1080015000000,
            "relative_velocity": {
                "kilometers_per_second": "8.8361947416",
                "kilometers_per_hour": "31810.3010697948",
                "miles_per_hour": "19765.6840175067"
            },
            "miss_distance": {
                "astronomical": "0.0775686711",
                "lunar": "30.1742130579",
                "kilometers": "11604107.975290557",
                "miles": "7210458.3424494066"
            },
            "orbiting_body": "Earth"
        }
    ],
    "orbital_data": {
        "orbit_id": "10",
        "orbit_determination_date": "2017-04-06 09:13:03",
        "first_observation_date": "2004-03-19",
        "last_observation_date": "2004-03-30",
        "data_arc_in_days": 11,
        "observations_used": 38,
        "orbit_uncertainty": "8",
        "minimum_orbit_intersection": ".0762034",
        "jupiter_tisserand_invariant": "4.710",
        "epoch_osculation": "2453088.5",
        "eccentricity": ".2348836459783918",
        "semi_major_axis": "1.390269193228937",
        "inclination": "15.75958344097072",
        "ascending_node_longitude": "358.7633575333797",
        "orbital_period": "598.7517227223193",
        "perihelion_distance": "1.063717696231887",
        "perihelion_argument": "198.7538945417058",
        "aphelion_distance": "1.716820690225987",
        "perihelion_time": "2453103.203170421694",
        "mean_anomaly": "351.1597058497907",
        "mean_motion": ".601250879685495",
        "equinox": "J2000",
        "orbit_class": {
            "orbit_class_type": "AMO",
            "orbit_class_description": "Near-Earth asteroid orbits similar to that of 1221 Amor",
            "orbit_class_range": "1.017 AU < q (perihelion) < 1.3 AU"
        }
    },
    "is_sentry_object": false
}